{
  "norad_id": 60382,
  "name": "QIANFAN-4",
  "history": [
    {
      "epoch": "2026-03-28T21:53:43.032768",
      "apogee_km": 1077.0346716995282,
      "perigee_km": 1060.1094934283146,
      "latitude_deg": -50.77456747848604,
      "longitude_deg": -54.21885247994214,
      "semi_major_axis_km": 7446.709082563922,
      "eccentricity": 0.00113642,
      "inclination_deg": 88.9688,
      "raan_deg": 288.1582,
      "arg_perigee_deg": 239.4477,
      "mean_anomaly_deg": 120.5553,
      "mean_motion_rev_day": 13.51002586
    },
    {
      "epoch": "2026-03-29T03:13:40.207296",
      "apogee_km": 1077.041704598124,
      "perigee_km": 1060.1019313789648,
      "latitude_deg": 19.109042393101102,
      "longitude_deg": -32.88865856011398,
      "semi_major_axis_km": 7446.708817988544,
      "eccentricity": 0.0011374,
      "inclination_deg": 88.9688,
      "raan_deg": 288.135,
      "arg_perigee_deg": 238.6915,
      "mean_anomaly_deg": 121.3123,
      "mean_motion_rev_day": 13.51002658
    }
  ]
}